$$SOE
2461288.500000000, A.D. 2026-Sep-05 00:00:00.0000, 9.171779042940032E+07, -2.510776027387474E+08, 6.095750238931894E+06,
2461295.500000000, A.D. 2026-Sep-12 00:00:00.0000, 1.048660280236489E+08, -2.445405430766705E+08, 6.713959178182244E+06,
2461302.500000000, A.D. 2026-Sep-19 00:00:00.0000, 1.177443063086841E+08, -2.373741470196561E+08, 7.314884146788165E+06,
2461309.500000000, A.D. 2026-Sep-26 00:00:00.0000, 1.303157408572917E+08, -2.295893097579852E+08, 7.896746336607665E+06,
2461316.500000000, A.D. 2026-Oct-03 00:00:00.0000, 1.425438718679056E+08, -2.211997770531193E+08, 8.457805253965586E+06,
2461323.500000000, A.D. 2026-Oct-10 00:00:00.0000, 1.543929523108923E+08, -2.122221449813889E+08, 8.996373132897794E+06,
2461330.500000000, A.D. 2026-Oct-17 00:00:00.0000, 1.658282401462162E+08, -2.026758228938220E+08, 9.510829331906497E+06,
2461337.500000000, A.D. 2026-Oct-24 00:00:00.0000, 1.768162889025682E+08, -1.925829584314415E+08, 9.999634415400870E+06,
2461344.500000000, A.D. 2026-Oct-31 00:00:00.0000, 1.873252307064480E+08, -1.819683245275044E+08, 1.046134360142474E+07,
2461351.500000000, A.D. 2026-Nov-07 00:00:00.0000, 1.973250460475592E+08, -1.708591693109066E+08, 1.089461925269748E+07,
2461358.500000000, A.D. 2026-Nov-14 00:00:00.0000, 2.067878146217629E+08, -1.592850301599093E+08, 1.129824218704575E+07,
2461365.500000000, A.D. 2026-Nov-21 00:00:00.0000, 2.156879400009196E+08, -1.472775144532147E+08, 1.167112177855233E+07,
2461372.500000000, A.D. 2026-Nov-28 00:00:00.0000, 2.240023423402790E+08, -1.348700542268516E+08, 1.201230448008810E+07,
2461379.500000000, A.D. 2026-Dec-05 00:00:00.0000, 2.317106188083637E+08, -1.220976404097585E+08, 1.232098021353572E+07,
2461386.500000000, A.D. 2026-Dec-12 00:00:00.0000, 2.387951689875810E+08, -1.089965391723372E+08, 1.259648675487703E+07,
2461393.500000000, A.D. 2026-Dec-19 00:00:00.0000, 2.452412815539506E+08, -9.560399642497256E+07, 1.283831223459784E+07,
2461400.500000000, A.D. 2026-Dec-26 00:00:00.0000, 2.510371814394642E+08, -8.195793752423069E+07, 1.304609570051130E+07,
2461407.500000000, A.D. 2027-Jan-02 00:00:00.0000, 2.561740382326582E+08, -6.809666846776240E+07, 1.321962576293612E+07,
2461414.500000000, A.D. 2027-Jan-09 00:00:00.0000, 2.606459374757407E+08, -5.405858432097152E+07, 1.335883742509841E+07,
2461421.500000000, A.D. 2027-Jan-16 00:00:00.0000, 2.644498173762659E+08, -3.988189010548183E+07, 1.346380725225580E+07,
2461428.500000000, A.D. 2027-Jan-23 00:00:00.0000, 2.675853742458166E+08, -2.560433874688813E+07, 1.353474706332693E+07,
2461435.500000000, A.D. 2027-Jan-30 00:00:00.0000, 2.700549407173254E+08, -1.126298989681003E+07, 1.357199633935906E+07,
2461442.500000000, A.D. 2027-Feb-06 00:00:00.0000, 2.718633414248037E+08, 3.106007804570025E+06, 1.357601356586556E+07,
2461449.500000000, A.D. 2027-Feb-13 00:00:00.0000, 2.730177301645695E+08, 1.746761022959916E+07, 1.354736688716273E+07,
2461456.500000000, A.D. 2027-Feb-20 00:00:00.0000, 2.735274107186858E+08, 3.178804506630588E+07, 1.348672446281161E+07,
2461463.500000000, A.D. 2027-Feb-27 00:00:00.0000, 2.734036471500384E+08, 4.603494931481334E+07, 1.339484435814775E+07,
2461470.500000000, A.D. 2027-Mar-06 00:00:00.0000, 2.726594707260444E+08, 6.017747922148640E+07, 1.327256405178349E+07,
2461477.500000000, A.D. 2027-Mar-13 00:00:00.0000, 2.713094856625402E+08, 7.418639563429002E+07, 1.312079005809481E+07,
2461484.500000000, A.D. 2027-Mar-20 00:00:00.0000, 2.693696759314914E+08, 8.803412536756979E+07, 1.294048786060295E+07,
2461491.500000000, A.D. 2027-Mar-27 00:00:00.0000, 2.668572162373558E+08, 1.016947998247453E+08, 1.273267222731880E+07,
2461498.500000000, A.D. 2027-Apr-03 00:00:00.0000, 2.637902897789551E+08, 1.151442728939540E+08, 1.249839799380391E+07,
2461505.500000000, A.D. 2027-Apr-10 00:00:00.0000, 2.601879147881526E+08, 1.283601203659573E+08, 1.223875139331501E+07,
2461512.500000000, A.D. 2027-Apr-17 00:00:00.0000, 2.560697813357347E+08, 1.413216231596256E+08, 1.195484199050935E+07,
2461519.500000000, A.D. 2027-Apr-24 00:00:00.0000, 2.514560995258915E+08, 1.540097365898257E+08, 1.164779524492736E+07,
2461526.500000000, A.D. 2027-May-01 00:00:00.0000, 2.463674600405054E+08, 1.664070479370297E+08, 1.131874569890592E+07,
2461533.500000000, A.D. 2027-May-08 00:00:00.0000, 2.408247076668487E+08, 1.784977251785788E+08, 1.096883082551740E+07,
2461540.500000000, A.D. 2027-May-15 00:00:00.0000, 2.348488263389724E+08, 1.902674597949494E+08, 1.059918574055879E+07,
2461547.500000000, A.D. 2027-May-22 00:00:00.0000, 2.284608339281509E+08, 2.017034028679383E+08, 1.021093869221713E+07,
2461554.500000000, A.D. 2027-May-29 00:00:00.0000, 2.216816897745409E+08, 2.127940946230917E+08, 9.805206873447612E+06,
2461561.500000000, A.D. 2027-Jun-05 00:00:00.0000, 2.145322153233813E+08, 2.235293919615159E+08, 9.383092695333689E+06,
2461568.500000000, A.D. 2027-Jun-12 00:00:00.0000, 2.070330252241109E+08, 2.339003956411190E+08, 8.945680700869024E+06,
2461575.500000000, A.D. 2027-Jun-19 00:00:00.0000, 1.992044678584413E+08, 2.438993772187814E+08, 8.494035030491531E+06,
2461582.500000000, A.D. 2027-Jun-26 00:00:00.0000, 1.910665748253333E+08, 2.535197063658683E+08, 8.029197348241434E+06,
2461589.500000000, A.D. 2027-Jul-03 00:00:00.0000, 1.826390187377963E+08, 2.627557792890934E+08, 7.552185174216717E+06,
2461596.500000000, A.D. 2027-Jul-10 00:00:00.0000, 1.739410785945710E+08, 2.716029488613368E+08, 7.063990580901518E+06,
2461603.500000000, A.D. 2027-Jul-17 00:00:00.0000, 1.649916120171882E+08, 2.800574569018905E+08, 6.565579209689960E+06,
2461610.500000000, A.D. 2027-Jul-24 00:00:00.0000, 1.558090338001392E+08, 2.881163689078423E+08, 6.057889552003726E+06,
2461617.500000000, A.D. 2027-Jul-31 00:00:00.0000, 1.464113005138742E+08, 2.957775117331855E+08, 5.541832441068754E+06,
2461624.500000000, A.D. 2027-Aug-07 00:00:00.0000, 1.368159003275527E+08, 3.030394155392188E+08, 5.018290832535356E+06,
2461631.500000000, A.D. 2027-Aug-14 00:00:00.0000, 1.270398451540831E+08, 3.099012598537265E+08, 4.488120032349735E+06,
2461638.500000000, A.D. 2027-Aug-21 00:00:00.0000, 1.170996651739322E+08, 3.163628204158402E+08, 3.952148013134584E+06,
2461645.500000000, A.D. 2027-Aug-28 00:00:00.0000, 1.070114086668194E+08, 3.224244180198990E+08, 3.411175577840507E+06,
2461652.500000000, A.D. 2027-Sep-04 00:00:00.0000, 9.679064551861860E+07, 3.280868718202410E+08, 2.865976659833550E+06,
2461659.500000000, A.D. 2027-Sep-11 00:00:00.0000, 8.645247259388563E+07, 3.333514563614819E+08, 2.317298812928572E+06,
2461666.500000000, A.D. 2027-Sep-18 00:00:00.0000, 7.601152073592138E+07, 3.382198615911526E+08, 1.765863808142543E+06,
2461673.500000000, A.D. 2027-Sep-25 00:00:00.0000, 6.548196329366289E+07, 3.426941556678408E+08, 1.212368293912619E+06,
2461680.500000000, A.D. 2027-Oct-02 00:00:00.0000, 5.487752595863082E+07, 3.467767504705001E+08, 6.574845010878891E+05,
2461687.500000000, A.D. 2027-Oct-09 00:00:00.0000, 4.421149767701960E+07, 3.504703696739255E+08, 1.018609779706150E+05,
2461694.500000000, A.D. 2027-Oct-16 00:00:00.0000, 3.349674247410589E+07, 3.537780191999235E+08, -4.538766655223519E+05,
2461701.500000000, A.D. 2027-Oct-23 00:00:00.0000, 2.274571225311406E+07, 3.567029599008986E+08, -1.009125038013145E+06,
2461708.500000000, A.D. 2027-Oct-30 00:00:00.0000, 1.197046077107031E+07, 3.592486829503267E+08, -1.563302263484210E+06,
2461715.500000000, A.D. 2027-Nov-06 00:00:00.0000, 1.182657481637566E+06, 3.614188889359769E+08, -2.115847102980077E+06,
2461722.500000000, A.D. 2027-Nov-13 00:00:00.0000, -9.606400864133868E+06, 3.632174684429799E+08, -2.666217894623965E+06,
2461729.500000000, A.D. 2027-Nov-20 00:00:00.0000, -2.038577807077776E+07, 3.646484818063761E+08, -3.213891760435224E+06,
2461736.500000000, A.D. 2027-Nov-27 00:00:00.0000, -3.114488428353349E+07, 3.657161408823412E+08, -3.758363989980608E+06,
2461743.500000000, A.D. 2027-Dec-04 00:00:00.0000, -4.187346180315590E+07, 3.664247936385378E+08, -4.299147344453067E+06,
2461750.500000000, A.D. 2027-Dec-11 00:00:00.0000, -5.256157154443941E+07, 3.667789104859715E+08, -4.835771311993763E+06,
2461757.500000000, A.D. 2027-Dec-18 00:00:00.0000, -6.319957991707396E+07, 3.667830719070283E+08, -5.367781369062945E+06,
2461764.500000000, A.D. 2027-Dec-25 00:00:00.0000, -7.377814601993048E+07, 3.664419572779949E+08, -5.894738263471156E+06,
2461771.500000000, A.D. 2028-Jan-01 00:00:00.0000, -8.428820914159775E+07, 3.657603348062732E+08, -6.416217322742179E+06,
$$EOE